STARLINK-36267          
1 67198U 25304G   26013.91668981 -.00015249  00000+0 -34507-3 0  9999
2 67198  70.0007 317.6527 0003505 261.8568  72.4618 15.42747518  5600
STARLINK-36268          
1 67199U 25304H   26013.76733288  .00069852  00000+0  11264-2 0  9997
2 67199  70.0003 317.9005 0003078 268.4194  91.6640 15.52563550  5537
STARLINK-36270          
1 67200U 25304J   26013.81199489  .00043023  00000+0  97892-3 0  9999
2 67200  70.0000 318.0636 0003331 282.1065  77.9744 15.42755292  5538
STARLINK-36262          
1 67201U 25304K   26013.80389075  .00047309  00000+0  10753-2 0  9992
2 67201  70.0001 318.0342 0003376 272.2350  87.8445 15.42762070  5530
STARLINK-36263          
1 67202U 25304L   26013.91668981 -.00015333  00000+0 -34716-3 0  9991
2 67202  70.0006 317.6785 0003057 269.5524  41.7994 15.42734713  5632
STARLINK-36224          
1 67203U 25304M   26013.91668981 -.00011642  00000+0 -26264-3 0  9990
2 67203  70.0007 317.6270 0003557 268.5649  87.7725 15.42734012  5639
STARLINK-36185          
1 67204U 25304N   26013.91668981 -.00011896  00000+0 -26853-3 0  9996
2 67204  70.0005 317.5757 0003095 263.5396 137.7952 15.42728042  5632
STARLINK-36197          
1 67205U 25304P   26013.91668981  .00006934  00000+0  16164-3 0  9996
2 67205  70.0003 317.5218 0003802 260.8989 185.4493 15.42701067  5602
STARLINK-36056          
1 67206U 25304Q   26013.91668981 -.02058744  00000+0 -43957-1 0  9995
2 67206  70.0009 317.4820 0003729 274.7873 205.2804 15.48077499  5609
STARLINK-36225          
1 67207U 25304R   26013.76458714  .00078717  00000+0  12675-2 0  9992
2 67207  70.0003 317.8898 0003508 270.0501  90.0284 15.52563890  5539
STARLINK-36265          
1 67208U 25304S   26013.80190891  .00048005  00000+0  10915-2 0  9999
2 67208  70.0000 318.0261 0003367 271.5352  88.5444 15.42747505  5533
STARLINK-36226          
1 67209U 25304T   26013.79380147  .00014366  00000+0  33056-3 0  9998
2 67209  70.0001 317.9978 0003439 271.6782  88.4006 15.42733805  5537
