CCSDS_OMM_VERS = 2.0
CREATION_DATE  = 
ORIGINATOR     = 

OBJECT_NAME    = STARLINK-36267
OBJECT_ID      = 2025-304G
CENTER_NAME    = EARTH
REF_FRAME      = TEME
TIME_SYSTEM    = UTC
MEAN_ELEMENT_THEORY = SGP/SGP4

EPOCH          = 2026-01-13T22:00:01.999584
MEAN_MOTION    = 15.42747518
ECCENTRICITY   = .00035058
INCLINATION    = 70.0007
RA_OF_ASC_NODE = 317.6527
ARG_OF_PERICENTER = 261.8568
MEAN_ANOMALY   = 72.4618

EPHEMERIS_TYPE = 0
CLASSIFICATION_TYPE = U
NORAD_CAT_ID   = 67198
ELEMENT_SET_NO = 999
REV_AT_EPOCH   = 560
BSTAR          = -.34506787E-3
MEAN_MOTION_DOT = -.15249E-3
MEAN_MOTION_DDOT = 0

CCSDS_OMM_VERS = 2.0
CREATION_DATE  = 
ORIGINATOR     = 

OBJECT_NAME    = STARLINK-36268
OBJECT_ID      = 2025-304H
CENTER_NAME    = EARTH
REF_FRAME      = TEME
TIME_SYSTEM    = UTC
MEAN_ELEMENT_THEORY = SGP/SGP4

EPOCH          = 2026-01-13T18:24:57.560832
MEAN_MOTION    = 15.52563550
ECCENTRICITY   = .00030789
INCLINATION    = 70.0003
RA_OF_ASC_NODE = 317.9005
ARG_OF_PERICENTER = 268.4194
MEAN_ANOMALY   = 91.6640

EPHEMERIS_TYPE = 0
CLASSIFICATION_TYPE = U
NORAD_CAT_ID   = 67199
ELEMENT_SET_NO = 999
REV_AT_EPOCH   = 553
BSTAR          = .11264196E-2
MEAN_MOTION_DOT = .69852E-3
MEAN_MOTION_DDOT = 0

CCSDS_OMM_VERS = 2.0
CREATION_DATE  = 
ORIGINATOR     = 

OBJECT_NAME    = STARLINK-36270
OBJECT_ID      = 2025-304J
CENTER_NAME    = EARTH
REF_FRAME      = TEME
TIME_SYSTEM    = UTC
MEAN_ELEMENT_THEORY = SGP/SGP4

EPOCH          = 2026-01-13T19:29:16.358496
MEAN_MOTION    = 15.42755292
ECCENTRICITY   = .00033311
INCLINATION    = 70.0000
RA_OF_ASC_NODE = 318.0636
ARG_OF_PERICENTER = 282.1065
MEAN_ANOMALY   = 77.9744

EPHEMERIS_TYPE = 0
CLASSIFICATION_TYPE = U
NORAD_CAT_ID   = 67200
ELEMENT_SET_NO = 999
REV_AT_EPOCH   = 553
BSTAR          = .9789188E-3
MEAN_MOTION_DOT = .43023E-3
MEAN_MOTION_DDOT = 0

CCSDS_OMM_VERS = 2.0
CREATION_DATE  = 
ORIGINATOR     = 

OBJECT_NAME    = STARLINK-36262
OBJECT_ID      = 2025-304K
CENTER_NAME    = EARTH
REF_FRAME      = TEME
TIME_SYSTEM    = UTC
MEAN_ELEMENT_THEORY = SGP/SGP4

EPOCH          = 2026-01-13T19:17:36.160800
MEAN_MOTION    = 15.42762070
ECCENTRICITY   = .00033765
INCLINATION    = 70.0001
RA_OF_ASC_NODE = 318.0342
ARG_OF_PERICENTER = 272.2350
MEAN_ANOMALY   = 87.8445

EPHEMERIS_TYPE = 0
CLASSIFICATION_TYPE = U
NORAD_CAT_ID   = 67201
ELEMENT_SET_NO = 999
REV_AT_EPOCH   = 553
BSTAR          = .10752565E-2
MEAN_MOTION_DOT = .47309E-3
MEAN_MOTION_DDOT = 0

CCSDS_OMM_VERS = 2.0
CREATION_DATE  = 
ORIGINATOR     = 

OBJECT_NAME    = STARLINK-36263
OBJECT_ID      = 2025-304L
CENTER_NAME    = EARTH
REF_FRAME      = TEME
TIME_SYSTEM    = UTC
MEAN_ELEMENT_THEORY = SGP/SGP4

EPOCH          = 2026-01-13T22:00:01.999584
MEAN_MOTION    = 15.42734713
ECCENTRICITY   = .00030575
INCLINATION    = 70.0006
RA_OF_ASC_NODE = 317.6785
ARG_OF_PERICENTER = 269.5524
MEAN_ANOMALY   = 41.7994

EPHEMERIS_TYPE = 0
CLASSIFICATION_TYPE = U
NORAD_CAT_ID   = 67202
ELEMENT_SET_NO = 999
REV_AT_EPOCH   = 563
BSTAR          = -.34716118E-3
MEAN_MOTION_DOT = -.15333E-3
MEAN_MOTION_DDOT = 0

CCSDS_OMM_VERS = 2.0
CREATION_DATE  = 
ORIGINATOR     = 

OBJECT_NAME    = STARLINK-36224
OBJECT_ID      = 2025-304M
CENTER_NAME    = EARTH
REF_FRAME      = TEME
TIME_SYSTEM    = UTC
MEAN_ELEMENT_THEORY = SGP/SGP4

EPOCH          = 2026-01-13T22:00:01.999584
MEAN_MOTION    = 15.42734012
ECCENTRICITY   = .0003557
INCLINATION    = 70.0007
RA_OF_ASC_NODE = 317.6270
ARG_OF_PERICENTER = 268.5649
MEAN_ANOMALY   = 87.7725

EPHEMERIS_TYPE = 0
CLASSIFICATION_TYPE = U
NORAD_CAT_ID   = 67203
ELEMENT_SET_NO = 999
REV_AT_EPOCH   = 563
BSTAR          = -.26263839E-3
MEAN_MOTION_DOT = -.11642E-3
MEAN_MOTION_DDOT = 0

CCSDS_OMM_VERS = 2.0
CREATION_DATE  = 
ORIGINATOR     = 

OBJECT_NAME    = STARLINK-36185
OBJECT_ID      = 2025-304N
CENTER_NAME    = EARTH
REF_FRAME      = TEME
TIME_SYSTEM    = UTC
MEAN_ELEMENT_THEORY = SGP/SGP4

EPOCH          = 2026-01-13T22:00:01.999584
MEAN_MOTION    = 15.42728042
ECCENTRICITY   = .00030953
INCLINATION    = 70.0005
RA_OF_ASC_NODE = 317.5757
ARG_OF_PERICENTER = 263.5396
MEAN_ANOMALY   = 137.7952

EPHEMERIS_TYPE = 0
CLASSIFICATION_TYPE = U
NORAD_CAT_ID   = 67204
ELEMENT_SET_NO = 999
REV_AT_EPOCH   = 563
BSTAR          = -.26853169E-3
MEAN_MOTION_DOT = -.11896E-3
MEAN_MOTION_DDOT = 0

CCSDS_OMM_VERS = 2.0
CREATION_DATE  = 
ORIGINATOR     = 

OBJECT_NAME    = STARLINK-36197
OBJECT_ID      = 2025-304P
CENTER_NAME    = EARTH
REF_FRAME      = TEME
TIME_SYSTEM    = UTC
MEAN_ELEMENT_THEORY = SGP/SGP4

EPOCH          = 2026-01-13T22:00:01.999584
MEAN_MOTION    = 15.42701067
ECCENTRICITY   = .00038026
INCLINATION    = 70.0003
RA_OF_ASC_NODE = 317.5218
ARG_OF_PERICENTER = 260.8989
MEAN_ANOMALY   = 185.4493

EPHEMERIS_TYPE = 0
CLASSIFICATION_TYPE = U
NORAD_CAT_ID   = 67205
ELEMENT_SET_NO = 999
REV_AT_EPOCH   = 560
BSTAR          = .16163776E-3
MEAN_MOTION_DOT = .6934E-4
MEAN_MOTION_DDOT = 0

CCSDS_OMM_VERS = 2.0
CREATION_DATE  = 
ORIGINATOR     = 

OBJECT_NAME    = STARLINK-36056
OBJECT_ID      = 2025-304Q
CENTER_NAME    = EARTH
REF_FRAME      = TEME
TIME_SYSTEM    = UTC
MEAN_ELEMENT_THEORY = SGP/SGP4

EPOCH          = 2026-01-13T22:00:01.999584
MEAN_MOTION    = 15.48077499
ECCENTRICITY   = .00037292
INCLINATION    = 70.0009
RA_OF_ASC_NODE = 317.4820
ARG_OF_PERICENTER = 274.7873
MEAN_ANOMALY   = 205.2804

EPHEMERIS_TYPE = 0
CLASSIFICATION_TYPE = U
NORAD_CAT_ID   = 67206
ELEMENT_SET_NO = 999
REV_AT_EPOCH   = 560
BSTAR          = -.43956766E-1
MEAN_MOTION_DOT = -.2058744E-1
MEAN_MOTION_DDOT = 0

CCSDS_OMM_VERS = 2.0
CREATION_DATE  = 
ORIGINATOR     = 

OBJECT_NAME    = STARLINK-36225
OBJECT_ID      = 2025-304R
CENTER_NAME    = EARTH
REF_FRAME      = TEME
TIME_SYSTEM    = UTC
MEAN_ELEMENT_THEORY = SGP/SGP4

EPOCH          = 2026-01-13T18:21:00.328896
MEAN_MOTION    = 15.52563890
ECCENTRICITY   = .0003508
INCLINATION    = 70.0003
RA_OF_ASC_NODE = 317.8898
ARG_OF_PERICENTER = 270.0501
MEAN_ANOMALY   = 90.0284

EPHEMERIS_TYPE = 0
CLASSIFICATION_TYPE = U
NORAD_CAT_ID   = 67207
ELEMENT_SET_NO = 999
REV_AT_EPOCH   = 553
BSTAR          = .12675333E-2
MEAN_MOTION_DOT = .78717E-3
MEAN_MOTION_DDOT = 0

CCSDS_OMM_VERS = 2.0
CREATION_DATE  = 
ORIGINATOR     = 

OBJECT_NAME    = STARLINK-36265
OBJECT_ID      = 2025-304S
CENTER_NAME    = EARTH
REF_FRAME      = TEME
TIME_SYSTEM    = UTC
MEAN_ELEMENT_THEORY = SGP/SGP4

EPOCH          = 2026-01-13T19:14:44.929824
MEAN_MOTION    = 15.42747505
ECCENTRICITY   = .00033674
INCLINATION    = 70.0000
RA_OF_ASC_NODE = 318.0261
ARG_OF_PERICENTER = 271.5352
MEAN_ANOMALY   = 88.5444

EPHEMERIS_TYPE = 0
CLASSIFICATION_TYPE = U
NORAD_CAT_ID   = 67208
ELEMENT_SET_NO = 999
REV_AT_EPOCH   = 553
BSTAR          = .10914809E-2
MEAN_MOTION_DOT = .48005E-3
MEAN_MOTION_DDOT = 0

CCSDS_OMM_VERS = 2.0
CREATION_DATE  = 
ORIGINATOR     = 

OBJECT_NAME    = STARLINK-36226
OBJECT_ID      = 2025-304T
CENTER_NAME    = EARTH
REF_FRAME      = TEME
TIME_SYSTEM    = UTC
MEAN_ELEMENT_THEORY = SGP/SGP4

EPOCH          = 2026-01-13T19:03:04.447008
MEAN_MOTION    = 15.42733805
ECCENTRICITY   = .00034399
INCLINATION    = 70.0001
RA_OF_ASC_NODE = 317.9978
ARG_OF_PERICENTER = 271.6782
MEAN_ANOMALY   = 88.4006

EPHEMERIS_TYPE = 0
CLASSIFICATION_TYPE = U
NORAD_CAT_ID   = 67209
ELEMENT_SET_NO = 999
REV_AT_EPOCH   = 553
BSTAR          = .33056448E-3
MEAN_MOTION_DOT = .14366E-3
MEAN_MOTION_DDOT = 0

